STARLINK-32480          
1 62039C 24216H   26175.66506944 -.00033492  00000+0 -12125-2 0  1757
2 62039  43.0037  12.3861 0001351 265.2208 100.4926 15.27610650    11
STARLINK-32510          
1 62040C 24216J   26175.56437500  .00048620  00000+0  17599-2 0  1756
2 62040  43.0034  20.2847 0001565 259.2603 100.5282 15.27574159    10
STARLINK-32456          
1 62041C 24216K   26175.61159722  .00008924  00000+0  32310-3 0  1752
2 62041  43.0035  12.7404 0001392 264.1493 145.7976 15.27585980    12
STARLINK-32509          
1 62042C 24216L   26175.58937500  .00025190  00000+0  91193-3 0  1755
2 62042  43.0028  12.6430 0001366 263.1604 116.5523 15.27582541    11
STARLINK-32491          
1 62043C 24216M   26175.61993056  .00015274  00000+0  55282-3 0  1759
2 62043  43.0034  19.9209 0001553 257.7644  69.1153 15.27595776    10
STARLINK-32577          
1 62044C 24216N   26175.58590278  .00036166  00000+0  13090-2 0  1758
2 62044  43.0012  19.7253 0001388 262.5125  39.7356 15.27583427    16
STARLINK-32618          
1 62045C 24216P   26175.62548611  .00009363  00000+0  33903-3 0  1753
2 62045  43.0035  12.5511 0001386 260.7747 268.2277 15.27583958    18
STARLINK-32598          
1 62046C 24216Q   26175.68381944 -.00036920  00000+0 -13366-2 0  1755
2 62046  43.0032  11.6006 0001587 269.3166 122.5933 15.27612968    13
STARLINK-32630          
1 62047C 24216R   26175.58868056  .00032838  00000+0  11888-2 0  1758
2 62047  43.0031  19.8574 0001357 249.2357   4.6427 15.27579360    13
STARLINK-32599          
1 62048C 24216S   26175.67548611 -.00008146  00000+0 -29488-3 0  1754
2 62048  43.0037  19.4187 0001443 256.4287  94.1505 15.27601109    12
STARLINK-32473          
1 62049C 24216T   26175.54840278  .00035068  00000+0  12695-2 0  1757
2 62049  43.0031  12.9051 0001480 259.4668 240.5065 15.27577269    19
STARLINK-32492          
1 62050C 24216U   26175.65951389 -.00056224  00000+0 -20331-2 0  1752
2 62050  43.0006  19.1730 0002007 269.5158 134.5622 15.27659296    10
STARLINK-32496          
1 62051C 24216V   26175.59770833  .00029028  00000+0  10504-2 0  1750
2 62051  43.0034  19.9940 0001472 263.1378 322.5415 15.27593901    11
STARLINK-32495          
1 62052C 24216W   26175.62270833  .00011587  00000+0  41827-3 0  1754
2 62052  43.0028  19.1396 0001820 260.6102  39.8392 15.27682366    12
STARLINK-32494          
1 62053C 24216X   26175.59909722  .00029410  00000+0  10662-2 0  1753
2 62053  43.0010  19.6162 0001352 253.3375 135.6802 15.27532844    17
STARLINK-32408          
1 62054C 24216Y   26175.68729167 -.00049653  00000+0 -17980-2 0  1750
2 62054  43.0027  12.0725 0001347 269.7038 296.1819 15.27610733    14
STARLINK-32571          
1 62055C 24216Z   26175.71576389 -.00057655  00000+0 -20877-2 0  1751
2 62055  43.0038  11.3683 0001731 264.6519 324.3871 15.27615406    11
STARLINK-11465 [DTC]    
1 62057C 24217A   26175.64215278  .00001299  00000+0  10706-4 0  1756
2 62057  53.1578 263.8136 0001174  79.8400 309.7740 15.69695491    17
STARLINK-11426 [DTC]    
1 62058C 24217B   26175.54701389 -.00108540  00000+0 -89415-3 0  1750
2 62058  53.1573 264.2262 0001174  84.9019 154.4834 15.69762171    10
STARLINK-11454 [DTC]    
1 62059C 24217C   26175.54562500 -.00103960  00000+0 -85639-3 0  1756
2 62059  53.1572 264.6282 0001160  74.7463 322.6301 15.69759353    17
STARLINK-11473 [DTC]    
1 62060C 24217D   26175.64770833  .00015233  00000+0  12558-3 0  1752
2 62060  53.1575 264.2377 0001186  83.8851 115.2584 15.69682506    17
STARLINK-11429 [DTC]    
1 62061C 24217E   26175.54701389 -.00108290  00000+0 -89205-3 0  1753
2 62061  53.1571 264.5643 0001173  78.8718 354.0931 15.69761806    15
STARLINK-11470 [DTC]    
1 62062C 24217F   26175.69979167  .00026491  00000+0  21830-3 0  1751
2 62062  53.1573 263.7525 0001197  72.1697 172.4097 15.69687215    13
STARLINK-11427 [DTC]    
1 62063C 24217G   26175.71090278  .00089085  00000+0  73396-3 0  1754
2 62063  53.1573 263.8690 0001101  74.4151 149.7756 15.69660503    13
STARLINK-11456 [DTC]    
1 62064C 24217H   26175.63173611 -.00028916  00000+0 -23831-3 0  1756
2 62064  53.1579 263.9189 0001253  82.0919 220.8829 15.69711376    16
STARLINK-11474 [DTC]    
1 62065C 24217J   26175.70187500  .00102740  00000+0  84672-3 0  1753
2 62065  53.1569 263.4040 0000857  90.2399 332.5517 15.69646090    14
STARLINK-11463 [DTC]    
1 62066C 24217K   26175.61854167 -.00053502  00000+0 -44082-3 0  1758
2 62066  53.1580 264.1007 0001132  73.3590  99.5307 15.69730150    19
STARLINK-11472 [DTC]    
1 62067C 24217L   26175.53590278 -.00099059  00000+0 -81611-3 0  1756
2 62067  53.1570 264.8995 0001217  83.9673 147.4950 15.69754906    17
STARLINK-11467 [DTC]    
1 62068C 24217M   26175.58312500 -.00120820  00000+0 -99524-3 0  1755
2 62068  53.1575 264.2136 0001184  84.2179 276.1365 15.69768792    10
STARLINK-11460 [DTC]    
1 62069C 24217N   26175.63937500  .00014944  00000+0  12319-3 0  1759
2 62069  53.1570 264.3317 0001184  79.6036  44.6838 15.69683192    11
STARLINK-32604          
1 62070C 24217P   26175.59493056  .00079797  00000+0  23563-2 0  1758
2 62070  53.1599  56.3856 0001393  93.1126 222.3848 15.34367723    11
STARLINK-32553          
1 62071C 24217Q   26175.63104167  .00063974  00000+0  18877-2 0  1758
2 62071  53.1595  56.2889 0001440  93.1679  27.0578 15.34398824    15
STARLINK-32603          
1 62072C 24217R   26175.70604167  .00036642  00000+0  10817-2 0  1750
2 62072  53.1592  56.0718 0001262  96.2222   8.7008 15.34397292    14
STARLINK-32444          
1 62073C 24217S   26175.60951389  .00069957  00000+0  20656-2 0  1758
2 62073  53.1600  56.2444 0001282 111.5510 331.0561 15.34374858    15
STARLINK-32619          
1 62074C 24217T   26175.68312500  .00044173  00000+0  13039-2 0  1753
2 62074  53.1604  55.9051 0001363  95.1348  22.6882 15.34397990    17
STARLINK-32580          
1 62075C 24217U   26175.56159722  .00068727  00000+0  23154-2 0  1756
2 62075  53.1597  44.8812 0001334 103.5535 176.5091 15.30170606    11
STARLINK-32617          
1 62076C 24217V   26175.69215278  .00811220  00000+0  24073-1 0  1754
2 62076  53.1596  43.8693 0001141 106.8774  18.2110 15.33847803    11
STARLINK-11384 [DTC]    
1 62088C 24220A   26175.64076389 -.00105440  00000+0 -81922-3 0  1754
2 62088  43.0004 118.7822 0001685 260.0624 314.6891 15.70883110    13
STARLINK-11379 [DTC]    
1 62089C 24220B   26175.68034722 -.00115720  00000+0 -89932-3 0  1755
2 62089  43.0001 118.4691 0001518 265.3541 203.5935 15.70882172    15
STARLINK-11387 [DTC]    
1 62090C 24220C   26175.58243056 -.00122720  00000+0 -95288-3 0  1757
2 62090  43.0005 118.9847 0001722 259.3675  45.2270 15.70906593    14
STARLINK-11389 [DTC]    
1 62091C 24220D   26175.65187500 -.00140980  00000+0 -10954-2 0  1751
2 62091  43.0002 118.4913 0001778 260.9115 106.9427 15.70898103    15
STARLINK-11388 [DTC]    
1 62092C 24220E   26175.60326389 -.00097655  00000+0 -75853-3 0  1757
2 62092  43.0006 118.7096 0001805 256.8645 225.8069 15.70884795    13
STARLINK-11345 [DTC]    
1 62093C 24220F   26175.62270833 -.00057537  00000+0 -44797-3 0  1750
2 62093  43.0006 118.5176 0001778 267.5584 355.3892 15.70808740    10
STARLINK-11381 [DTC]    
1 62094C 24220G   26175.62409722 -.00155040  00000+0 -12044-2 0  1759
2 62094  43.0005 118.4346 0001889 258.3549  42.4043 15.70910849    16
STARLINK-11369 [DTC]    
1 62095C 24220H   26175.62895833 -.00156960  00000+0 -12197-2 0  1753
2 62095  43.0003 118.3305 0001555 268.9811  89.3651 15.70905379    15
STARLINK-11303 [DTC]    
1 62096C 24220J   26175.58659722  .00005887  00000+0  45761-4 0  1758
2 62096  43.0003 118.5112 0001286 261.5989 246.9308 15.70818010    15
STARLINK-11367 [DTC]    
1 62097C 24220K   26175.68034722 -.00107400  00000+0 -83495-3 0  1758
2 62097  43.0001 117.8711 0001620 268.6082  80.8350 15.70870025    11
STARLINK-11386 [DTC]    
1 62098C 24220L   26175.64493056 -.00070364  00000+0 -54681-3 0  1757
2 62098  43.0002 118.0098 0001681 260.9156 278.0427 15.70860428    10
STARLINK-11380 [DTC]    
1 62099C 24220M   26175.52618056 -.00096425  00000+0 -74893-3 0  1757
2 62099  43.0001 118.6514 0001701 261.6073 355.0536 15.70885997    13
STARLINK-33566          
1 62100C 24220N   26175.55256944 -.00073738  00000+0 -26700-2 0  1752
2 62100  43.0026 307.3344 0001380 267.1296 112.1213 15.27624341    12
STARLINK-33545          
1 62101C 24220P   26175.53381944 -.00029732  00000+0 -10766-2 0  1750
2 62101  43.0029 321.8980 0001442 265.9416 126.0331 15.27602827    12
STARLINK-33562          
1 62102C 24220Q   26175.59215278 -.00058967  00000+0 -21353-2 0  1759
2 62102  43.0021 321.7180 0001650 267.2788  22.1962 15.27614266    10
STARLINK-33554          
1 62103C 24220R   26175.52409722 -.00050795  00000+0 -18392-2 0  1752
2 62103  43.0030 321.9016 0001395 263.2261  96.4457 15.27613174    19
STARLINK-33555          
1 62104C 24220S   26175.60465278 -.00102570  00000+0 -37144-2 0  1755
2 62104  43.0001 321.8842 0001418 265.8802 353.3720 15.27635334    19
STARLINK-33559          
1 62107C 24220V   26175.57062500 -.00040273  00000+0 -14581-2 0  1756
2 62107  43.0002 322.0261 0001351 264.9024 188.2089 15.27611962    17
STARLINK-33553          
1 62108C 24220W   26175.68034722 -.00084043  00000+0 -30439-2 0  1757
2 62108  43.0015 321.3064 0001543 270.9106 108.7547 15.27621148    19
STARLINK-33556          
1 62109C 24220X   26175.65256944 -.00086831  00000+0 -31450-2 0  1758
2 62109  43.0031 321.2779 0001625 269.7201  34.8462 15.27621343    15
STARLINK-33551          
1 62110C 24220Y   26175.68937500 -.00093475  00000+0 -33858-2 0  1753
2 62110  43.0010 321.3054 0001426 268.6405 139.5233 15.27623236    16
STARLINK-32311          
1 62114C 24222A   26175.58104167  .00008144  00000+0  29506-3 0  1756
2 62114  42.9998 237.5388 0001396 272.5872 308.3175 15.27564314    11
